XRISM                   
1 57800U 23137A   24034.76960117  .00005409  00000+0  42416-3 0  9993
2 57800  31.0028 147.0592 0009870 317.8712  42.1164 14.99446060 22406
